STARLINK-1697
1 16546C 20070Q   21326.15556815  .00004034  00000-0  27029-3 0  3262
2 16546  53.0543  18.0404 0001432  57.7614 328.6478 15.06397963    12
